[{"OBJECT_NAME":"TIANQI-25","OBJECT_ID":"2024-102A","EPOCH":"2026-03-09T21:59:20.408352","MEAN_MOTION":13.99133359,"ECCENTRICITY":0.00097008,"INCLINATION":44.9789,"RA_OF_ASC_NODE":343.6735,"ARG_OF_PERICENTER":130.7366,"MEAN_ANOMALY":229.431,"EPHEMERIS_TYPE":0,"CLASSIFICATION_TYPE":"U","NORAD_CAT_ID":59909,"ELEMENT_SET_NO":999,"REV_AT_EPOCH":9100,"BSTAR":0.00024425271,"MEAN_MOTION_DOT":2.28e-6,"MEAN_MOTION_DDOT":0},{"OBJECT_NAME":"METEOR 2-17 DEB","OBJECT_ID":"1988-005E","EPOCH":"2026-03-08T10:23:13.628832","MEAN_MOTION":14.04161731,"ECCENTRICITY":0.00156953,"INCLINATION":82.5137,"RA_OF_ASC_NODE":317.0887,"ARG_OF_PERICENTER":66.6737,"MEAN_ANOMALY":293.6084,"EPHEMERIS_TYPE":0,"CLASSIFICATION_TYPE":"U","NORAD_CAT_ID":28990,"ELEMENT_SET_NO":999,"REV_AT_EPOCH":59160,"BSTAR":0.0019356194,"MEAN_MOTION_DOT":3.086e-5,"MEAN_MOTION_DDOT":0}]
